[{"OBJECT_NAME":"ONEWEB-0663","OBJECT_ID":"2023-029AD","EPOCH":"2026-02-16T06:18:48.481632","MEAN_MOTION":13.20860715,"ECCENTRICITY":0.00012825,"INCLINATION":87.9217,"RA_OF_ASC_NODE":298.638,"ARG_OF_PERICENTER":91.818,"MEAN_ANOMALY":268.31,"EPHEMERIS_TYPE":0,"CLASSIFICATION_TYPE":"U","NORAD_CAT_ID":55823,"ELEMENT_SET_NO":999,"REV_AT_EPOCH":14518,"BSTAR":0.00017634261,"MEAN_MOTION_DOT":8.5e-7,"MEAN_MOTION_DDOT":0},{"OBJECT_NAME":"ONEWEB-0664","OBJECT_ID":"2023-029AE","EPOCH":"2026-02-16T04:59:20.502816","MEAN_MOTION":13.20773936,"ECCENTRICITY":0.00013729,"INCLINATION":87.9197,"RA_OF_ASC_NODE":298.644,"ARG_OF_PERICENTER":67.1451,"MEAN_ANOMALY":292.9828,"EPHEMERIS_TYPE":0,"CLASSIFICATION_TYPE":"U","NORAD_CAT_ID":55824,"ELEMENT_SET_NO":999,"REV_AT_EPOCH":14517,"BSTAR":2.2459563e-5,"MEAN_MOTION_DOT":2.2e-7,"MEAN_MOTION_DDOT":0},{"OBJECT_NAME":"ONEWEB-0665","OBJECT_ID":"2023-029AF","EPOCH":"2026-02-16T06:47:59.186688","MEAN_MOTION":13.14503162,"ECCENTRICITY":0.0001357,"INCLINATION":87.9018,"RA_OF_ASC_NODE":313.8445,"ARG_OF_PERICENTER":84.2061,"MEAN_ANOMALY":275.9224,"EPHEMERIS_TYPE":0,"CLASSIFICATION_TYPE":"U","NORAD_CAT_ID":55825,"ELEMENT_SET_NO":999,"REV_AT_EPOCH":14352,"BSTAR":-8.790529e-6,"MEAN_MOTION_DOT":1.0e-7,"MEAN_MOTION_DDOT":0},{"OBJECT_NAME":"ONEWEB-0666","OBJECT_ID":"2023-029AG","EPOCH":"2026-02-16T04:50:14.176608","MEAN_MOTION":13.2077107,"ECCENTRICITY":0.00023736,"INCLINATION":87.9201,"RA_OF_ASC_NODE":298.6351,"ARG_OF_PERICENTER":79.4872,"MEAN_ANOMALY":280.6528,"EPHEMERIS_TYPE":0,"CLASSIFICATION_TYPE":"U","NORAD_CAT_ID":55826,"ELEMENT_SET_NO":999,"REV_AT_EPOCH":14518,"BSTAR":7.8473348e-5,"MEAN_MOTION_DOT":4.5e-7,"MEAN_MOTION_DDOT":0},{"OBJECT_NAME":"ONEWEB-0667","OBJECT_ID":"2023-029AH","EPOCH":"2026-02-16T04:41:08.190816","MEAN_MOTION":13.20770002,"ECCENTRICITY":0.00014831,"INCLINATION":87.9204,"RA_OF_ASC_NODE":298.5758,"ARG_OF_PERICENTER":77.9537,"MEAN_ANOMALY":282.1762,"EPHEMERIS_TYPE":0,"CLASSIFICATION_TYPE":"U","NORAD_CAT_ID":55827,"ELEMENT_SET_NO":999,"REV_AT_EPOCH":14517,"BSTAR":0.00026654003,"MEAN_MOTION_DOT":1.21e-6,"MEAN_MOTION_DDOT":0},{"OBJECT_NAME":"ONEWEB-0669","OBJECT_ID":"2023-029AJ","EPOCH":"2026-02-16T04:34:18.935616","MEAN_MOTION":13.2077001,"ECCENTRICITY":0.00018946,"INCLINATION":87.9197,"RA_OF_ASC_NODE":298.6035,"ARG_OF_PERICENTER":61.6588,"MEAN_ANOMALY":298.4736,"EPHEMERIS_TYPE":0,"CLASSIFICATION_TYPE":"U","NORAD_CAT_ID":55828,"ELEMENT_SET_NO":999,"REV_AT_EPOCH":14517,"BSTAR":0.0001707061,"MEAN_MOTION_DOT":8.2e-7,"MEAN_MOTION_DDOT":0},{"OBJECT_NAME":"ONEWEB-0670","OBJECT_ID":"2023-029AK","EPOCH":"2026-02-16T04:26:24.256608","MEAN_MOTION":13.1450473,"ECCENTRICITY":0.00013808,"INCLINATION":87.9014,"RA_OF_ASC_NODE":313.8834,"ARG_OF_PERICENTER":68.2327,"MEAN_ANOMALY":291.895,"EPHEMERIS_TYPE":0,"CLASSIFICATION_TYPE":"U","NORAD_CAT_ID":55829,"ELEMENT_SET_NO":999,"REV_AT_EPOCH":14353,"BSTAR":0.00035642999,"MEAN_MOTION_DOT":1.45e-6,"MEAN_MOTION_DDOT":0},{"OBJECT_NAME":"ONEWEB-0671","OBJECT_ID":"2023-029AL","EPOCH":"2026-02-16T06:53:46.474080","MEAN_MOTION":13.19724272,"ECCENTRICITY":0.00016144,"INCLINATION":87.9248,"RA_OF_ASC_NODE":329.0515,"ARG_OF_PERICENTER":78.3981,"MEAN_ANOMALY":281.7333,"EPHEMERIS_TYPE":0,"CLASSIFICATION_TYPE":"U","NORAD_CAT_ID":55830,"ELEMENT_SET_NO":999,"REV_AT_EPOCH":14295,"BSTAR":3.638891e-6,"MEAN_MOTION_DOT":1.4e-7,"MEAN_MOTION_DDOT":0},{"OBJECT_NAME":"ONEWEB-0672","OBJECT_ID":"2023-029AM","EPOCH":"2026-02-16T04:27:30.489120","MEAN_MOTION":13.20770669,"ECCENTRICITY":0.00018886,"INCLINATION":87.9206,"RA_OF_ASC_NODE":298.5887,"ARG_OF_PERICENTER":76.7323,"MEAN_ANOMALY":283.4021,"EPHEMERIS_TYPE":0,"CLASSIFICATION_TYPE":"U","NORAD_CAT_ID":55831,"ELEMENT_SET_NO":999,"REV_AT_EPOCH":14517,"BSTAR":0.00025159434,"MEAN_MOTION_DOT":1.15e-6,"MEAN_MOTION_DDOT":0},{"OBJECT_NAME":"ONEWEB-0673","OBJECT_ID":"2023-029AN","EPOCH":"2026-02-16T06:20:47.848416","MEAN_MOTION":13.19724524,"ECCENTRICITY":0.00016584,"INCLINATION":87.9253,"RA_OF_ASC_NODE":329.0405,"ARG_OF_PERICENTER":77.1229,"MEAN_ANOMALY":283.0089,"EPHEMERIS_TYPE":0,"CLASSIFICATION_TYPE":"U","NORAD_CAT_ID":55832,"ELEMENT_SET_NO":999,"REV_AT_EPOCH":14295,"BSTAR":0.00025879111,"MEAN_MOTION_DOT":1.17e-6,"MEAN_MOTION_DDOT":0},{"OBJECT_NAME":"ONEWEB-0674","OBJECT_ID":"2023-029AP","EPOCH":"2026-02-16T05:30:20.536704","MEAN_MOTION":13.14505069,"ECCENTRICITY":0.00014035,"INCLINATION":87.9014,"RA_OF_ASC_NODE":313.8517,"ARG_OF_PERICENTER":64.1404,"MEAN_ANOMALY":295.9871,"EPHEMERIS_TYPE":0,"CLASSIFICATION_TYPE":"U","NORAD_CAT_ID":55833,"ELEMENT_SET_NO":999,"REV_AT_EPOCH":14352,"BSTAR":-0.00033506781,"MEAN_MOTION_DOT":-1.11e-6,"MEAN_MOTION_DDOT":0},{"OBJECT_NAME":"ONEWEB-0675","OBJECT_ID":"2023-029AQ","EPOCH":"2026-02-16T06:42:24.232032","MEAN_MOTION":13.19724666,"ECCENTRICITY":0.00020602,"INCLINATION":87.9242,"RA_OF_ASC_NODE":329.0557,"ARG_OF_PERICENTER":82.6583,"MEAN_ANOMALY":277.4784,"EPHEMERIS_TYPE":0,"CLASSIFICATION_TYPE":"U","NORAD_CAT_ID":55834,"ELEMENT_SET_NO":999,"REV_AT_EPOCH":14297,"BSTAR":0.00010627919,"MEAN_MOTION_DOT":5.5e-7,"MEAN_MOTION_DDOT":0},{"OBJECT_NAME":"ONEWEB-0720","OBJECT_ID":"2023-029AR","EPOCH":"2026-02-16T06:31:02.193888","MEAN_MOTION":13.19723972,"ECCENTRICITY":0.00015691,"INCLINATION":87.9249,"RA_OF_ASC_NODE":329.0569,"ARG_OF_PERICENTER":89.4718,"MEAN_ANOMALY":270.6595,"EPHEMERIS_TYPE":0,"CLASSIFICATION_TYPE":"U","NORAD_CAT_ID":55835,"ELEMENT_SET_NO":999,"REV_AT_EPOCH":14289,"BSTAR":0.00024498868,"MEAN_MOTION_DOT":1.11e-6,"MEAN_MOTION_DDOT":0},{"OBJECT_NAME":"ONEWEB-0537","OBJECT_ID":"2023-043A","EPOCH":"2026-02-16T01:19:49.914048","MEAN_MOTION":13.16595561,"ECCENTRICITY":0.00018157,"INCLINATION":87.8999,"RA_OF_ASC_NODE":252.8788,"ARG_OF_PERICENTER":91.2331,"MEAN_ANOMALY":268.9008,"EPHEMERIS_TYPE":0,"CLASSIFICATION_TYPE":"U","NORAD_CAT_ID":56046,"ELEMENT_SET_NO":999,"REV_AT_EPOCH":14302,"BSTAR":-9.3713118e-5,"MEAN_MOTION_DOT":-2.3e-7,"MEAN_MOTION_DDOT":0},{"OBJECT_NAME":"ONEWEB-0538","OBJECT_ID":"2023-043B","EPOCH":"2026-02-16T03:00:08.854272","MEAN_MOTION":13.16595265,"ECCENTRICITY":0.00017741,"INCLINATION":87.8996,"RA_OF_ASC_NODE":252.8679,"ARG_OF_PERICENTER":100.14,"MEAN_ANOMALY":259.9931,"EPHEMERIS_TYPE":0,"CLASSIFICATION_TYPE":"U","NORAD_CAT_ID":56047,"ELEMENT_SET_NO":999,"REV_AT_EPOCH":14304,"BSTAR":-2.9877303e-5,"MEAN_MOTION_DOT":1.0e-8,"MEAN_MOTION_DDOT":0},{"OBJECT_NAME":"ONEWEB-0546","OBJECT_ID":"2023-043C","EPOCH":"2026-02-16T02:41:54.426336","MEAN_MOTION":13.16595304,"ECCENTRICITY":0.00022006,"INCLINATION":87.9004,"RA_OF_ASC_NODE":252.8671,"ARG_OF_PERICENTER":85.1692,"MEAN_ANOMALY":274.969,"EPHEMERIS_TYPE":0,"CLASSIFICATION_TYPE":"U","NORAD_CAT_ID":56048,"ELEMENT_SET_NO":999,"REV_AT_EPOCH":14303,"BSTAR":0.00021932943,"MEAN_MOTION_DOT":9.7e-7,"MEAN_MOTION_DDOT":0}]
