ONEWEB-0663             
1 55823U 23029AD  26047.26306113  .00000085  00000+0  17634-3 0  9996
2 55823  87.9217 298.6380 0001282  91.8180 268.3100 13.20860715145187
ONEWEB-0664             
1 55824U 23029AE  26047.20787619  .00000022  00000+0  22460-4 0  9990
2 55824  87.9197 298.6440 0001372  67.1451 292.9828 13.20773936145176
ONEWEB-0665             
1 55825U 23029AF  26047.28332392  .00000010  00000+0 -87905-5 0  9997
2 55825  87.9018 313.8445 0001357  84.2061 275.9224 13.14503162143527
ONEWEB-0666             
1 55826U 23029AG  26047.20155297  .00000045  00000+0  78473-4 0  9993
2 55826  87.9201 298.6351 0002373  79.4872 280.6528 13.20771070145189
ONEWEB-0667             
1 55827U 23029AH  26047.19523369  .00000121  00000+0  26654-3 0  9999
2 55827  87.9204 298.5758 0001483  77.9537 282.1762 13.20770002145175
ONEWEB-0669             
1 55828U 23029AJ  26047.19049694  .00000082  00000+0  17071-3 0  9993
2 55828  87.9197 298.6035 0001894  61.6588 298.4736 13.20770010145178
ONEWEB-0670             
1 55829U 23029AK  26047.18500297  .00000145  00000+0  35643-3 0  9999
2 55829  87.9014 313.8834 0001380  68.2327 291.8950 13.14504730143538
ONEWEB-0671             
1 55830U 23029AL  26047.28734345  .00000014  00000+0  36389-5 0  9990
2 55830  87.9248 329.0515 0001614  78.3981 281.7333 13.19724272142950
ONEWEB-0672             
1 55831U 23029AM  26047.18576955  .00000115  00000+0  25159-3 0  9994
2 55831  87.9206 298.5887 0001888  76.7323 283.4021 13.20770669145175
ONEWEB-0673             
1 55832U 23029AN  26047.26444269  .00000117  00000+0  25879-3 0  9997
2 55832  87.9253 329.0405 0001658  77.1229 283.0089 13.19724524142959
ONEWEB-0674             
1 55833U 23029AP  26047.22940436 -.00000111  00000+0 -33507-3 0  9994
2 55833  87.9014 313.8517 0001403  64.1404 295.9871 13.14505069143520
ONEWEB-0675             
1 55834U 23029AQ  26047.27944713  .00000055  00000+0  10628-3 0  9996
2 55834  87.9242 329.0557 0002060  82.6583 277.4784 13.19724666142977
ONEWEB-0720             
1 55835U 23029AR  26047.27155317  .00000111  00000+0  24499-3 0  9995
2 55835  87.9249 329.0569 0001569  89.4718 270.6595 13.19723972142891
ONEWEB-0537             
1 56046U 23043A   26047.05543882 -.00000023  00000+0 -93713-4 0  9990
2 56046  87.8999 252.8788 0001815  91.2331 268.9008 13.16595561143022
ONEWEB-0538             
1 56047U 23043B   26047.12510248  .00000001  00000+0 -29877-4 0  9994
2 56047  87.8996 252.8679 0001774 100.1400 259.9931 13.16595265143048
ONEWEB-0546             
1 56048U 23043C   26047.11243549  .00000097  00000+0  21933-3 0  9999
2 56048  87.9004 252.8671 0002200  85.1692 274.9690 13.16595304143034
